IRIDIUM 119             
1 42959U 17061E   24096.43989652  .00000153  00000+0  47463-4 0  9997
2 42959  86.4026   0.7197 0002383  88.0840 272.0628 14.34218655339758
IRIDIUM 107             
1 42960U 17061F   24096.45893925  .00000013  00000+0 -25005-5 0  9993
2 42960  86.4027   0.7280 0002459  84.2311 275.9165 14.34218412339770
IRIDIUM 132             
1 42961U 17061G   24095.97688451  .00000109  00000+0  31721-4 0  9992
2 42961  86.4028   0.9147 0002429  82.9313 277.2159 14.34216868339692
IRIDIUM 136             
1 42962U 17061H   24096.42720774  .00000252  00000+0  82889-4 0  9999
2 42962  86.4027   0.7293 0002268  92.6325 267.5131 14.34218546339770
IRIDIUM 139             
1 42963U 17061J   24095.80564325  .00000331  00000+0  11097-3 0  9999
2 42963  86.4030   1.0378 0002452  82.3270 277.8205 14.34216686339693
IRIDIUM 125             
1 42964U 17061K   24096.49063497  .00000065  00000+0  16263-4 0  9995
2 42964  86.4031   0.7982 0002496  89.8264 270.3218 14.34215916339805
IRIDIUM 135             
1 43070U 17083A   24096.53453119  .00000117  00000+0  34698-4 0  9997
2 43070  86.3919 297.4676 0001868  79.7046 280.4360 14.34214402329102
IRIDIUM 138             
1 43071U 17083B   24096.49014538  .00000062  00000+0  14965-4 0  9995
2 43071  86.3907 297.2121 0002345  94.2867 265.8596 14.34215615329089
